{
  "name": "SATGUS",
  "line1": "1 62713U 25009DJ  26022.19313351  .00008885  00000+0  73751-3 0  9997",
  "line2": "2 62713  97.7186 104.9109 0000957 265.0995  95.0118 14.99004898 55679",
  "fetched_at": "2026-01-23T00:20:58.823624+00:00"
}